CTC2_L_00508001-01
1 80774U 23120WM  26037.47797454  .00000000  00000+0  00000-0 0  9998
2 80774  97.4000   0.0000 0000000   0.0000   0.0000 15.55740738    14
CTC2_L_00508002-01
1 80775U 26143DU  26037.47797454  .00000000  00000+0  00000-0 0  9997
2 80775  97.4000  12.0000 0000000   0.0000  48.0000 15.55740738    10
CTC2_L_00508003-01
1 80776U 25829XR  26037.47797454  .00000000  00000+0  00000-0 0  9998
2 80776  97.4000  24.0000 0000000   0.0000  96.0000 15.55740738    17
CTC2_L_00508004-01
1 80777U 24389BC  26037.47797454  .00000000  00000+0  00000-0 0  9999
2 80777  97.4000  36.0000 0000000   0.0000 144.0000 15.55740738    15
CTC2_L_00508005-01
1 80778U 25576LB  26037.47797454  .00000000  00000+0  00000-0 0  9999
2 80778  97.4000  48.0000 0000000   0.0000 192.0000 15.55740738    12
CTC2_L_00508006-01
1 80779U 24834JJ  26037.47797454  .00000000  00000+0  00000-0 0  9996
2 80779  97.4000  60.0000 0000000   0.0000 240.0000 15.55740738    11
CTC2_L_00508007-01
1 80780U 26395CX  26037.47797454  .00000000  00000+0  00000-0 0  9992
2 80780  97.4000  72.0000 0000000   0.0000 288.0000 15.55740738    18
CTC2_L_00508008-01
1 80781U 22458FO  26037.47797454  .00000000  00000+0  00000-0 0  9999
2 80781  97.4000  84.0000 0000000   0.0000 336.0000 15.55740738    16
CTC2_L_00508009-01
1 80782U 25049PG  26037.47797454  .00000000  00000+0  00000-0 0  9999
2 80782  97.4000  96.0000 0000000   0.0000  24.0000 15.55740738    14
CTC2_L_00508010-01
1 80783U 26166AM  26037.47797454  .00000000  00000+0  00000-0 0  9991
2 80783  97.4000 108.0000 0000000   0.0000  72.0000 15.55740738    12
CTC2_L_00508011-01
1 80784U 26658LK  26037.47797454  .00000000  00000+0  00000-0 0  9998
2 80784  97.4000 120.0000 0000000   0.0000 120.0000 15.55740738    11
CTC2_L_00508012-01
1 80785U 24289VG  26037.47797454  .00000000  00000+0  00000-0 0  9997
2 80785  97.4000 132.0000 0000000   0.0000 168.0000 15.55740738    17
CTC2_L_00508013-01
1 80786U 22830HU  26037.47797454  .00000000  00000+0  00000-0 0  9998
2 80786  97.4000 144.0000 0000000   0.0000 216.0000 15.55740738    15
CTC2_L_00508014-01
1 80787U 22296EO  26037.47797454  .00000000  00000+0  00000-0 0  9995
2 80787  97.4000 156.0000 0000000   0.0000 264.0000 15.55740738    12
CTC2_L_00508015-01
1 80788U 25368XF  26037.47797454  .00000000  00000+0  00000-0 0  9999
2 80788  97.4000 168.0000 0000000   0.0000 312.0000 15.55740738    10
CTC2_L_00508016-01
1 80789U 22974QF  26037.47797454  .00000000  00000+0  00000-0 0  9990
2 80789  97.4000 180.0000 0000000   0.0000   0.0000 15.55740738    19
CTC2_L_00508017-01
1 80790U 22390HE  26037.47797454  .00000000  00000+0  00000-0 0  9994
2 80790  97.4000 192.0000 0000000   0.0000  48.0000 15.55740738    16
CTC2_L_00508018-01
1 80791U 25747DG  26037.47797454  .00000000  00000+0  00000-0 0  9994
2 80791  97.4000 204.0000 0000000   0.0000  96.0000 15.55740738    14
CTC2_L_00508019-01
1 80792U 26464KT  26037.47797454  .00000000  00000+0  00000-0 0  9992
2 80792  97.4000 216.0000 0000000   0.0000 144.0000 15.55740738    12
CTC2_L_00508020-01
1 80793U 23979IT  26037.47797454  .00000000  00000+0  00000-0 0  9991
2 80793  97.4000 228.0000 0000000   0.0000 192.0000 15.55740738    19
CTC2_L_00508021-01
1 80794U 26509OI  26037.47797454  .00000000  00000+0  00000-0 0  9994
2 80794  97.4000 240.0000 0000000   0.0000 240.0000 15.55740738    18
CTC2_L_00508022-01
1 80795U 26493OV  26037.47797454  .00000000  00000+0  00000-0 0  9997
2 80795  97.4000 252.0000 0000000   0.0000 288.0000 15.55740738    14
CTC2_L_00508023-01
1 80796U 23814VC  26037.47797454  .00000000  00000+0  00000-0 0  9992
2 80796  97.4000 264.0000 0000000   0.0000 336.0000 15.55740738    12
CTC2_L_00508024-01
1 80797U 23073ZG  26037.47797454  .00000000  00000+0  00000-0 0  9990
2 80797  97.4000 276.0000 0000000   0.0000  24.0000 15.55740738    10
CTC2_L_00508025-01
1 80798U 26053MO  26037.47797454  .00000000  00000+0  00000-0 0  9992
2 80798  97.4000 288.0000 0000000   0.0000  72.0000 15.55740738    17
CTC2_L_00508026-01
1 80799U 25572HI  26037.47797454  .00000000  00000+0  00000-0 0  9998
2 80799  97.4000 300.0000 0000000   0.0000 120.0000 15.55740738    17
CTC2_L_00508027-01
1 80800U 26460GN  26037.47797454  .00000000  00000+0  00000-0 0  9998
2 80800  97.4000 312.0000 0000000   0.0000 168.0000 15.55740738    15
CTC2_L_00508028-01
1 80801U 25201UM  26037.47797454  .00000000  00000+0  00000-0 0  9991
2 80801  97.4000 324.0000 0000000   0.0000 216.0000 15.55740738    13
CTC2_L_00508029-01
1 80802U 22437NG  26037.47797454  .00000000  00000+0  00000-0 0  9990
2 80802  97.4000 336.0000 0000000   0.0000 264.0000 15.55740738    10
CTC2_L_00508030-01
1 80803U 24342WD  26037.47797454  .00000000  00000+0  00000-0 0  9998
2 80803  97.4000 348.0000 0000000   0.0000 312.0000 15.55740738    18
